{"type": "FeatureCollection", "features": [ {"type": "Feature", "properties": {"norad_id": 52912, "name": "GAOFEN-12 03", "group": "resource", "lat": 61.09630829697801, "lon": -133.13681170256933, "alt_km": 623.1740336779276, "timestamp": "2025-12-20T03:42:47.049986+00:00", "meta": {"OBJECT_NAME": "GAOFEN-12 03", "OBJECT_ID": "2022-069A", "EPOCH": "2025-12-19T20:56:29.241024", "MEAN_MOTION": 14.79626429, "ECCENTRICITY": 0.0002012, "INCLINATION": 97.849, "RA_OF_ASC_NODE": 241.0564, "ARG_OF_PERICENTER": 54.9493, "MEAN_ANOMALY": 305.1908, "EPHEMERIS_TYPE": 0, "CLASSIFICATION_TYPE": "U", "NORAD_CAT_ID": 52912, "ELEMENT_SET_NO": 999, "REV_AT_EPOCH": 18809, "BSTAR": 0.00015983, "MEAN_MOTION_DOT": 1.148e-05, "MEAN_MOTION_DDOT": 0}, "tle": {"line1": "1 52912U 22069A   25353.87256066  .00001148  00000+0  15983-3 0  9998", "line2": "2 52912  97.8490 241.0564 0002012  54.9493 305.1908 14.79626429188091"}}, "geometry": {"type": "Point", "coordinates": [-133.13681170256933, 61.09630829697801]}}, {"type": "Feature", "properties": {"norad_id": 54754, "name": "SWOT", "group": "resource", "lat": 75.76865017080014, "lon": -22.94711617266969, "alt_km": 885.609113916862, "timestamp": "2025-12-20T03:42:47.049996+00:00", "meta": {"OBJECT_NAME": "SWOT", "OBJECT_ID": "2022-173A", "EPOCH": "2025-12-19T18:44:37.975776", "MEAN_MOTION": 14.00167878, "ECCENTRICITY": 3.61e-05, "INCLINATION": 77.6109, "RA_OF_ASC_NODE": 277.4849, "ARG_OF_PERICENTER": 92.9513, "MEAN_ANOMALY": 267.168, "EPHEMERIS_TYPE": 0, "CLASSIFICATION_TYPE": "U", "NORAD_CAT_ID": 54754, "ELEMENT_SET_NO": 999, "REV_AT_EPOCH": 15404, "BSTAR": 2.1055e-05, "MEAN_MOTION_DOT": 2.9e-07, "MEAN_MOTION_DDOT": 0}, "tle": {"line1": "1 54754U 22173A   25353.78099509  .00000029  00000+0  21055-4 0  9992", "line2": "2 54754  77.6109 277.4849 0000361  92.9513 267.1680 14.00167878154043"}}, "geometry": {"type": "Point", "coordinates": [-22.94711617266969, 75.76865017080014]}}, {"type": "Feature", "properties": {"norad_id": 57654, "name": "GAOFEN-12 04", "group": "resource", "lat": -53.58360187872278, "lon": 78.93225135737586, "alt_km": 638.0259371877601, "timestamp": "2025-12-20T03:42:47.050007+00:00", "meta": {"OBJECT_NAME": "GAOFEN-12 04", "OBJECT_ID": "2023-123A", "EPOCH": "2025-12-19T20:09:57.451392", "MEAN_MOTION": 14.79718832, "ECCENTRICITY": 0.0001235, "INCLINATION": 97.9127, "RA_OF_ASC_NODE": 269.4897, "ARG_OF_PERICENTER": 77.059, "MEAN_ANOMALY": 283.0759, "EPHEMERIS_TYPE": 0, "CLASSIFICATION_TYPE": "U", "NORAD_CAT_ID": 57654, "ELEMENT_SET_NO": 999, "REV_AT_EPOCH": 12610, "BSTAR": 0.00012999, "MEAN_MOTION_DOT": 9.25e-06, "MEAN_MOTION_DDOT": 0}, "tle": {"line1": "1 57654U 23123A   25353.84024828  .00000925  00000+0  12999-3 0  9990", "line2": "2 57654  97.9127 269.4897 0001235  77.0590 283.0759 14.79718832126102"}}, "geometry": {"type": "Point", "coordinates": [78.93225135737586, -53.58360187872278]}}, {"type": "Feature", "properties": {"norad_id": 59065, "name": "PARS 1", "group": "resource", "lat": 72.43265352314057, "lon": 169.7084527228767, "alt_km": 431.2257116257915, "timestamp": "2025-12-20T03:42:47.050017+00:00", "meta": {"OBJECT_NAME": "PARS 1", "OBJECT_ID": "2024-039Q", "EPOCH": "2025-12-19T17:54:22.416192", "MEAN_MOTION": 15.41124704, "ECCENTRICITY": 0.0012121, "INCLINATION": 97.4638, "RA_OF_ASC_NODE": 324.8279, "ARG_OF_PERICENTER": 51.104, "MEAN_ANOMALY": 309.1286, "EPHEMERIS_TYPE": 0, "CLASSIFICATION_TYPE": "U", "NORAD_CAT_ID": 59065, "ELEMENT_SET_NO": 999, "REV_AT_EPOCH": 10096, "BSTAR": 0.00021357, "MEAN_MOTION_DOT": 8.777e-05, "MEAN_MOTION_DDOT": 0}, "tle": {"line1": "1 59065U 24039Q   25353.74609278  .00008777  00000+0  21357-3 0  9993", "line2": "2 59065  97.4638 324.8279 0012121  51.1040 309.1286 15.41124704100961"}}, "geometry": {"type": "Point", "coordinates": [169.7084527228767, 72.43265352314057]}}, {"type": "Feature", "properties": {"norad_id": 59371, "name": "RESURS-P 4", "group": "resource", "lat": 9.146314987205367, "lon": -60.84267000642321, "alt_km": 470.79464320803254, "timestamp": "2025-12-20T03:42:47.050027+00:00", "meta": {"OBJECT_NAME": "RESURS-P 4", "OBJECT_ID": "2024-061A", "EPOCH": "2025-12-19T19:50:08.433600", "MEAN_MOTION": 15.32137848, "ECCENTRICITY": 0.0001051, "INCLINATION": 97.2555, "RA_OF_ASC_NODE": 300.0111, "ARG_OF_PERICENTER": 59.2139, "MEAN_ANOMALY": 300.9207, "EPHEMERIS_TYPE": 0, "CLASSIFICATION_TYPE": "U", "NORAD_CAT_ID": 59371, "ELEMENT_SET_NO": 999, "REV_AT_EPOCH": 9629, "BSTAR": 9.5869e-05, "MEAN_MOTION_DOT": 2.899e-05, "MEAN_MOTION_DDOT": 0}, "tle": {"line1": "1 59371U 24061A   25353.82648650  .00002899  00000+0  95869-4 0  9993", "line2": "2 59371  97.2555 300.0111 0001051  59.2139 300.9207 15.32137848 96291"}}, "geometry": {"type": "Point", "coordinates": [-60.84267000642321, 9.146314987205367]}}, {"type": "Feature", "properties": {"norad_id": 59625, "name": "LEGION 1", "group": "resource", "lat": 1.0986518040200668, "lon": -111.12465198763441, "alt_km": 519.8981413451338, "timestamp": "2025-12-20T03:42:47.050037+00:00", "meta": {"OBJECT_NAME": "LEGION 1", "OBJECT_ID": "2024-081A", "EPOCH": "2025-12-19T19:00:32.948064", "MEAN_MOTION": 15.16544655, "ECCENTRICITY": 0.0003636, "INCLINATION": 97.521, "RA_OF_ASC_NODE": 68.3706, "ARG_OF_PERICENTER": 285.6477, "MEAN_ANOMALY": 74.4355, "EPHEMERIS_TYPE": 0, "CLASSIFICATION_TYPE": "U", "NORAD_CAT_ID": 59625, "ELEMENT_SET_NO": 999, "REV_AT_EPOCH": 9034, "BSTAR": 0.00016425, "MEAN_MOTION_DOT": 3.136e-05, "MEAN_MOTION_DDOT": 0}, "tle": {"line1": "1 59625U 24081A   25353.79204801  .00003136  00000+0  16425-3 0  9994", "line2": "2 59625  97.5210  68.3706 0003636 285.6477  74.4355 15.16544655 90346"}}, "geometry": {"type": "Point", "coordinates": [-111.12465198763441, 1.0986518040200668]}}, {"type": "Feature", "properties": {"norad_id": 59626, "name": "LEGION 2", "group": "resource", "lat": -1.147865281363239, "lon": 68.9697174127926, "alt_km": 519.9660171945561, "timestamp": "2025-12-20T03:42:47.050047+00:00", "meta": {"OBJECT_NAME": "LEGION 2", "OBJECT_ID": "2024-081B", "EPOCH": "2025-12-19T18:13:01.011936", "MEAN_MOTION": 15.16557595, "ECCENTRICITY": 0.0005626, "INCLINATION": 97.5214, "RA_OF_ASC_NODE": 68.4257, "ARG_OF_PERICENTER": 263.0389, "MEAN_ANOMALY": 97.0204, "EPHEMERIS_TYPE": 0, "CLASSIFICATION_TYPE": "U", "NORAD_CAT_ID": 59626, "ELEMENT_SET_NO": 999, "REV_AT_EPOCH": 9034, "BSTAR": 0.00020294, "MEAN_MOTION_DOT": 3.893e-05, "MEAN_MOTION_DDOT": 0}, "tle": {"line1": "1 59626U 24081B   25353.75903949  .00003893  00000+0  20294-3 0  9999", "line2": "2 59626  97.5214  68.4257 0005626 263.0389  97.0204 15.16557595 90347"}}, "geometry": {"type": "Point", "coordinates": [68.9697174127926, -1.147865281363239]}}, {"type": "Feature", "properties": {"norad_id": 60182, "name": "ALOS-4 (DAICHI-4)", "group": "resource", "lat": 69.91598082945836, "lon": -68.71710686764528, "alt_km": 623.2464402066626, "timestamp": "2025-12-20T03:42:47.050057+00:00", "meta": {"OBJECT_NAME": "ALOS-4 (DAICHI-4)", "OBJECT_ID": "2024-123A", "EPOCH": "2025-12-19T20:43:54.639840", "MEAN_MOTION": 14.79474045, "ECCENTRICITY": 0.0001386, "INCLINATION": 97.9224, "RA_OF_ASC_NODE": 88.6094, "ARG_OF_PERICENTER": 101.4337, "MEAN_ANOMALY": 258.7031, "EPHEMERIS_TYPE": 0, "CLASSIFICATION_TYPE": "U", "NORAD_CAT_ID": 60182, "ELEMENT_SET_NO": 999, "REV_AT_EPOCH": 7936, "BSTAR": 0.00019776, "MEAN_MOTION_DOT": 1.426e-05, "MEAN_MOTION_DDOT": 0}, "tle": {"line1": "1 60182U 24123A   25353.86382685  .00001426  00000+0  19776-3 0  9998", "line2": "2 60182  97.9224  88.6094 0001386 101.4337 258.7031 14.79474045 79360"}}, "geometry": {"type": "Point", "coordinates": [-68.71710686764528, 69.91598082945836]}}, {"type": "Feature", "properties": {"norad_id": 60452, "name": "LEGION 3", "group": "resource", "lat": 44.71567814962257, "lon": 8.184309151380175, "alt_km": 520.2356211826973, "timestamp": "2025-12-20T03:42:47.050067+00:00", "meta": {"OBJECT_NAME": "LEGION 3", "OBJECT_ID": "2024-146A", "EPOCH": "2025-12-19T16:13:16.062240", "MEAN_MOTION": 15.15829906, "ECCENTRICITY": 0.0015616, "INCLINATION": 45.0022, "RA_OF_ASC_NODE": 272.9476, "ARG_OF_PERICENTER": 236.0936, "MEAN_ANOMALY": 123.8458, "EPHEMERIS_TYPE": 0, "CLASSIFICATION_TYPE": "U", "NORAD_CAT_ID": 60452, "ELEMENT_SET_NO": 999, "REV_AT_EPOCH": 7478, "BSTAR": 0.00017712, "MEAN_MOTION_DOT": 3.187e-05, "MEAN_MOTION_DDOT": 0}, "tle": {"line1": "1 60452U 24146A   25353.67588035  .00003187  00000+0  17712-3 0  9993", "line2": "2 60452  45.0022 272.9476 0015616 236.0936 123.8458 15.15829906 74780"}}, "geometry": {"type": "Point", "coordinates": [8.184309151380175, 44.71567814962257]}}, {"type": "Feature", "properties": {"norad_id": 60453, "name": "LEGION 4", "group": "resource", "lat": 44.871329767292906, "lon": 97.97717070507335, "alt_km": 512.7958883316087, "timestamp": "2025-12-20T03:42:47.050078+00:00", "meta": {"OBJECT_NAME": "LEGION 4", "OBJECT_ID": "2024-146B", "EPOCH": "2025-12-19T17:48:38.964096", "MEAN_MOTION": 15.15892363, "ECCENTRICITY": 0.0008815, "INCLINATION": 45.0395, "RA_OF_ASC_NODE": 4.3645, "ARG_OF_PERICENTER": 348.481, "MEAN_ANOMALY": 11.5866, "EPHEMERIS_TYPE": 0, "CLASSIFICATION_TYPE": "U", "NORAD_CAT_ID": 60453, "ELEMENT_SET_NO": 999, "REV_AT_EPOCH": 7364, "BSTAR": 0.00018302, "MEAN_MOTION_DOT": 3.302e-05, "MEAN_MOTION_DDOT": 0}, "tle": {"line1": "1 60453U 24146B   25353.74211764  .00003302  00000+0  18302-3 0  9999", "line2": "2 60453  45.0395   4.3645 0008815 348.4810  11.5866 15.15892363 73648"}}, "geometry": {"type": "Point", "coordinates": [97.97717070507335, 44.871329767292906]}}]}